     2.10           G: GLONASS NAV DATA                     RINEX VERSION / TYPE
teqc  2015Jun23                         20211205 01:25:49UTCPGM / RUN BY / DATE
Linux 2.4.21-27.ELsmp|Opteron|gcc -static|Linux x86_64|=+   COMMENT
  2021    11    11   -9.313225746155D-10                    CORR TO SYSTEM TIME
                                                            END OF HEADER
23 21 11 12 13 15  0.0-1.974776387215D-05-9.094947017729D-13 4.680000000000D+04
   -1.004872851562D+04-2.006025314331D-01 0.000000000000D+00 0.000000000000D+00
    2.267713134766D+04 8.294124603271D-01 3.725290298462D-09 3.000000000000D+00
   -5.970020507812D+03 3.489207267761D+00-0.000000000000D+00 0.000000000000D+00
12 21 11 12 13 15  0.0 2.778163179755D-04 3.637978807092D-12 4.746000000000D+04
   -9.777782714844D+03-2.893956184387D+00-0.000000000000D+00 0.000000000000D+00
    1.032649951172D+04 1.247491836548D-01 0.000000000000D+00-1.000000000000D+00
    2.120917236328D+04-1.394638061523D+00-1.862645149231D-09 0.000000000000D+00
 3 21 11 12 13 15  0.0 4.633888602257D-05 0.000000000000D+00 4.776000000000D+04
    1.609926806641D+04 1.102033615112D+00-9.313225746155D-10 0.000000000000D+00
    1.379276318359D+04 1.597568511963D+00 0.000000000000D+00 5.000000000000D+00
    1.417578613281D+04-2.818245887756D+00-2.793967723846D-09 0.000000000000D+00
 3 21 11 12 13 45  0.0 4.633981734514D-05 0.000000000000D+00 4.860000000000D+04
    1.789253369141D+04 8.465204238892D-01-9.313225746155D-10 0.000000000000D+00
    1.597892041016D+04 8.302364349365D-01 1.862645149231D-09 5.000000000000D+00
    8.619901367188D+03-3.314940452576D+00-1.862645149231D-09 0.000000000000D+00
24 21 11 12 13 45  0.0 6.665661931038D-05 1.818989403546D-12 4.860000000000D+04
   -2.171223144531D+03-5.726528167725D-01 0.000000000000D+00 0.000000000000D+00
    2.155408740234D+04 1.762981414795D+00 3.725290298462D-09 2.000000000000D+00
   -1.346525244141D+04 2.907673835754D+00 0.000000000000D+00 0.000000000000D+00
 1 21 11 12 13 45  0.0 8.800625801086D-05 0.000000000000D+00 4.860000000000D+04
   -3.888995605469D+03-1.905154228210D+00 9.313225746155D-10 0.000000000000D+00
    1.203288525391D+04-2.358225822449D+00 1.862645149231D-09 1.000000000000D+00
   -2.216112255859D+04-9.456729888916D-01 1.862645149231D-09 0.000000000000D+00
 2 21 11 12 13 45  0.0 4.998054355383D-04 0.000000000000D+00 4.860000000000D+04
    1.118812011719D+04-6.292610168457D-01-0.000000000000D+00 0.000000000000D+00
    2.109269628906D+04-1.055893898010D+00 3.725290298462D-09-4.000000000000D+00
   -8.849962402344D+03-3.305541992188D+00-0.000000000000D+00 0.000000000000D+00
12 21 11 12 13 45  0.0 2.778228372335D-04 3.637978807092D-12 4.860000000000D+04
   -1.458187451172D+04-2.401790618896D+00-0.000000000000D+00 0.000000000000D+00
    1.088560449219D+04 4.717340469360D-01 0.000000000000D+00-1.000000000000D+00
    1.791396093750D+04-2.243037223816D+00-9.313225746155D-10 0.000000000000D+00
22 21 11 12 13 45  0.0-1.447228714824D-04-2.728484105319D-12 4.860000000000D+04
   -1.345841796875D+04 1.134733200073D+00-0.000000000000D+00 0.000000000000D+00
    1.023610742188D+04-2.364562988281D+00 0.000000000000D+00-3.000000000000D+00
    1.905309472656D+04 2.078711509705D+00-9.313225746155D-10 0.000000000000D+00
23 21 11 12 13 45  0.0-1.974962651730D-05-9.094947017729D-13 4.860000000000D+04
   -9.967734863281D+03 2.553758621216D-01 0.000000000000D+00 0.000000000000D+00
    2.347916357422D+04 3.719711303711D-02 2.793967723846D-09 3.000000000000D+00
    4.601591796875D+02 3.609057426453D+00-9.313225746155D-10 0.000000000000D+00
 3 21 11 12 14 15  0.0 4.634074866772D-05 0.000000000000D+00 5.040000000000D+04
    1.899663134766D+04 3.423166275024D-01-0.000000000000D+00 0.000000000000D+00
    1.681117871094D+04 1.117753982544D-01 2.793967723846D-09 5.000000000000D+00
    2.396205078125D+03-3.555297851562D+00-1.862645149231D-09 0.000000000000D+00
24 21 11 12 14 15  0.0 6.665941327810D-05 1.818989403546D-12 5.040000000000D+04
   -2.761493164062D+03-1.100130081177D-01 9.313225746155D-10 0.000000000000D+00
    2.414119433594D+04 1.076844215393D+00 3.725290298462D-09 2.000000000000D+00
   -7.778516113281D+03 3.369848251343D+00-0.000000000000D+00 0.000000000000D+00
 1 21 11 12 14 15  0.0 8.800718933344D-05 0.000000000000D+00 5.040000000000D+04
   -7.708471679688D+03-2.307504653931D+00 9.313225746155D-10 0.000000000000D+00
    7.951666992188D+03-2.135895729065D+00 9.313225746155D-10 1.000000000000D+00
   -2.298550244141D+04 3.565025329590D-02 1.862645149231D-09 0.000000000000D+00
 2 21 11 12 14 15  0.0 4.998063668609D-04 0.000000000000D+00 5.040000000000D+04
    9.440917480469D+03-1.320758819580D+00 9.313225746155D-10 0.000000000000D+00
    1.877238671875D+04-1.478767395020D+00 2.793967723846D-09-4.000000000000D+00
   -1.437865380859D+04-2.797325134277D+00 0.000000000000D+00 0.000000000000D+00
12 21 11 12 14 15  0.0 2.778293564916D-04 3.637978807092D-12 5.040000000000D+04
   -1.829628125000D+04-1.697439193726D+00 0.000000000000D+00 0.000000000000D+00
    1.191211669922D+04 6.321372985840D-01 0.000000000000D+00-1.000000000000D+00
    1.323809375000D+04-2.918785095215D+00-9.313225746155D-10 0.000000000000D+00
23 21 11 12 14 15  0.0-1.975242048502D-05-9.094947017729D-13 5.040000000000D+04
   -9.272277343750D+03 4.746646881104D-01 0.000000000000D+00 0.000000000000D+00
    2.275579687500D+04-8.465108871460D-01 1.862645149231D-09 3.000000000000D+00
    6.854757812500D+03 3.449921607971D+00-9.313225746155D-10 0.000000000000D+00
17 21 11 12 14 15  0.0 4.742937162519D-04 2.728484105319D-12 5.073000000000D+04
    6.400587890625D+03-6.118659973145D-01 9.313225746155D-10 0.000000000000D+00
    1.319760156250D+04 2.798301696777D+00 2.793967723846D-09 4.000000000000D+00
   -2.086976220703D+04 1.576654434204D+00 9.313225746155D-10 0.000000000000D+00
 3 21 11 12 14 45  0.0 4.634074866772D-05 0.000000000000D+00 5.220000000000D+04
    1.900920947266D+04-3.534650802612D-01 0.000000000000D+00 0.000000000000D+00
    1.647236914062D+04-4.558973312378D-01 2.793967723846D-09 5.000000000000D+00
   -4.013311035156D+03-3.519949913025D+00-9.313225746155D-10 0.000000000000D+00
24 21 11 12 14 45  0.0 6.666220724583D-05 1.818989403546D-12 5.220000000000D+04
   -2.685518066406D+03 1.568145751953D-01 9.313225746155D-10 0.000000000000D+00
    2.533366650391D+04 2.298336029053D-01 2.793967723846D-09 2.000000000000D+00
   -1.490591796875D+03 3.571381568909D+00-0.000000000000D+00 0.000000000000D+00
 2 21 11 12 14 45  0.0 4.998072981834D-04 0.000000000000D+00 5.220000000000D+04
    6.436262695312D+03-2.007334709167D+00 9.313225746155D-10 0.000000000000D+00
    1.593341943359D+04-1.629402160645D+00 2.793967723846D-09-4.000000000000D+00
   -1.878953173828D+04-2.071684837341D+00 9.313225746155D-10 0.000000000000D+00
12 21 11 12 14 45  0.0 2.778349444270D-04 3.637978807092D-12 5.220000000000D+04
   -2.062412158203D+04-8.793878555298D-01 0.000000000000D+00 0.000000000000D+00
    1.301676708984D+04 5.531015396118D-01 0.000000000000D+00-1.000000000000D+00
    7.541540039062D+03-3.369769096375D+00-0.000000000000D+00 0.000000000000D+00
17 21 11 12 14 45  0.0 4.742993041873D-04 2.728484105319D-12 5.220000000000D+04
    5.747241210938D+03-1.292257308960D-01 9.313225746155D-10 0.000000000000D+00
    1.789063964844D+04 2.368731498718D+00 2.793967723846D-09 4.000000000000D+00
   -1.726201025391D+04 2.405834197998D+00 9.313225746155D-10 0.000000000000D+00
23 21 11 12 14 45  0.0-1.975428313017D-05-9.094947017729D-13 5.220000000000D+04
   -8.414965820312D+03 4.355068206787D-01 0.000000000000D+00 0.000000000000D+00
    2.044824365234D+04-1.702758789062D+00 9.313225746155D-10 3.000000000000D+00
    1.271942626953D+04 3.024064064026D+00-9.313225746155D-10 0.000000000000D+00
13 21 11 12 14 45  0.0-6.347894668579D-05-0.000000000000D+00 5.250000000000D+04
   -6.897344238281D+03-2.505497932434D+00-0.000000000000D+00 0.000000000000D+00
    1.378820947266D+04 1.215062141418D+00 0.000000000000D+00-2.000000000000D+00
    2.030958105469D+04-1.674343109131D+00-1.862645149231D-09 0.000000000000D+00
 3 21 11 12 15 15  0.0 4.634074866772D-05 0.000000000000D+00 5.400000000000D+04
    1.766409375000D+04-1.148662567139D+00 9.313225746155D-10 0.000000000000D+00
    1.530521777344D+04-7.995033264160D-01 2.793967723846D-09 5.000000000000D+00
   -1.011108740234D+04-3.211117744446D+00-0.000000000000D+00 0.000000000000D+00
24 21 11 12 15 15  0.0 6.666593253613D-05 1.818989403546D-12 5.400000000000D+04
   -2.341909179688D+03 1.835756301880D-01 9.313225746155D-10 0.000000000000D+00
    2.493721923828D+04-6.691722869873D-01 1.862645149231D-09 2.000000000000D+00
    4.912505371094D+03 3.497045516968D+00-9.313225746155D-10 0.000000000000D+00
 2 21 11 12 15 15  0.0 4.998082295060D-04 0.000000000000D+00 5.400000000000D+04
    2.285552246094D+03-2.576023101807D+00 1.862645149231D-09 0.000000000000D+00
    1.306672558594D+04-1.514566421509D+00 1.862645149231D-09-4.000000000000D+00
   -2.174008984375D+04-1.185418128967D+00 1.862645149231D-09 0.000000000000D+00
12 21 11 12 15 15  0.0 2.778414636850D-04 3.637978807092D-12 5.400000000000D+04
   -2.146217773438D+04-6.140232086182D-02 9.313225746155D-10 0.000000000000D+00
    1.375247949219D+04 2.242546081543D-01 0.000000000000D+00-1.000000000000D+00
    1.263190429688D+03-3.560982704163D+00 0.000000000000D+00 0.000000000000D+00
13 21 11 12 15 15  0.0-6.347987800837D-05-0.000000000000D+00 5.400000000000D+04
   -1.085741210938D+04-1.869022369385D+00 0.000000000000D+00 0.000000000000D+00
    1.607932861328D+04 1.289815902710D+00 0.000000000000D+00-2.000000000000D+00
    1.654884277344D+04-2.477072715759D+00-9.313225746155D-10 0.000000000000D+00
17 21 11 12 15 15  0.0 4.743058234453D-04 2.728484105319D-12 5.400000000000D+04
    5.851630859375D+03 2.147455215454D-01 1.862645149231D-09 0.000000000000D+00
    2.157307324219D+04 1.687203407288D+00 2.793967723846D-09 4.000000000000D+00
   -1.232088232422D+04 3.048629760742D+00 0.000000000000D+00 0.000000000000D+00
